STARLINK-5992           
1 56328U 23058M   25299.95801992  .00000547  00000+0  42113-4 0  9992
2 56328  97.6019 299.3986 0001974  86.1080 274.0372 15.05652199138075
STARLINK-5984           
1 56329U 23058N   25300.01063832  .00000194  00000+0  17633-4 0  9993
2 56329  97.6025 299.4822 0001784  93.8117 266.3313 15.05647512138081
STARLINK-5991           
1 56331U 23058Q   25300.01499774  .00000545  00000+0  46933-4 0  9999
2 56331  97.6036 299.3295 0002490  85.0144 275.1364 15.01261333138079
STARLINK-5093           
1 56332U 23058R   25299.95945689  .00000819  00000+0  68318-4 0  9996
2 56332  97.6042 299.2470 0001547  85.3108 274.8293 15.01258826138065
STARLINK-5553           
1 56333U 23058S   25299.97186538  .00000334  00000+0  27340-4 0  9991
2 56333  97.6012 299.3825 0001772  86.6353 273.5076 15.05648885138072
STARLINK-5548           
1 56334U 23058T   25299.98572157  .00003659  00000+0  25766-3 0  9991
2 56334  97.6021 299.5132 0002394  90.2263 269.9238 15.05652910138082
STARLINK-5559           
1 56335U 23058U   25299.99956045  .00000624  00000+0  47489-4 0  9991
2 56335  97.6027 299.4977 0001827  88.0055 272.1381 15.05640875138081
STARLINK-5562           
1 56336U 23058V   25300.08535286  .00000899  00000+0  74551-4 0  9999
2 56336  97.6031 299.3894 0001942  97.0471 263.0974 15.01262514138087
STARLINK-5561           
1 56337U 23058W   25300.00968985  .00000493  00000+0  42937-4 0  9991
2 56337  97.6026 299.3396 0003865  65.3690 294.7936 15.01260525138074
STARLINK-5554           
1 56338U 23058X   25300.01130044  .00000128  00000+0  14500-4 0  9990
2 56338  97.6033 299.3353 0003277  76.1501 284.0088 15.01264783138074
STARLINK-5552           
1 56339U 23058Y   25300.00390690  .00009393  00000+0  73479-3 0  9997
2 56339  97.6026 299.3440 0003836  52.4512 307.7060 15.01261415138076
STARLINK-5540           
1 56340U 23058Z   25300.16571809 -.00001429  00000+0 -94862-4 0  9993
2 56340  97.6031 299.5864 0001883  87.8464 272.2978 15.05640114138103
STARLINK-5543           
1 56341U 23058AA  25300.00759301 -.00000082  00000+0 -18084-5 0  9999
2 56341  97.6031 299.3405 0004358  59.7854 300.3802 15.01258046138063
STARLINK-5955           
1 56342U 23058AB  25300.00787073  .00000462  00000+0  36257-4 0  9998
2 56342  97.6026 299.4872 0001804  91.3027 268.8407 15.05646049138083
STARLINK-5976           
1 56343U 23058AC  25299.96909648  .00000408  00000+0  32465-4 0  9992
2 56343  97.6025 299.3878 0001330  88.2902 271.8477 15.05651956138072
STARLINK-5974           
1 56344U 23058AD  25299.99679733 -.00000398  00000+0 -23373-4 0  9993
2 56344  97.6028 299.5010 0001914  91.4181 268.7265 15.05645204138089
STARLINK-5979           
1 56345U 23058AE  25299.99647655  .00000420  00000+0  37250-4 0  9995
2 56345  97.6012 299.3525 0002031  65.8341 294.3096 15.01261870138071
STARLINK-5837           
1 56346U 23058AF  25300.00018036  .00000424  00000+0  37573-4 0  9998
2 56346  97.6019 299.3487 0002687  48.2778 311.8676 15.01262007138074
STARLINK-5829           
1 56347U 23058AG  25300.01340832  .00000970  00000+0  71412-4 0  9998
2 56347  97.6037 299.4814 0001357  76.7681 283.3697 15.05661289138088
STARLINK-5888           
1 56348U 23058AH  25299.93562644  .00000794  00000+0  66341-4 0  9993
2 56348  97.6021 299.2807 0003778  61.4653 298.6951 15.01258816138065
STARLINK-5887           
1 56349U 23058AJ  25300.05572554 -.00000217  00000+0 -12361-4 0  9996
2 56349  97.6008 299.4231 0002334  88.9841 271.1651 15.01261556138084
STARLINK-5886           
1 56350U 23058AK  25300.00510279  .00000061  00000+0  84766-5 0  9993
2 56350  97.6035 299.4933 0002000  92.3780 267.7675 15.05646397138087
STARLINK-5891           
1 56351U 23058AL  25299.96356497  .00037583  00000+0  26084-2 0  9991
2 56351  97.6035 299.3937 0001271  72.4540 287.6825 15.05460424138075
STARLINK-5885           
1 56352U 23058AM  25299.99277212  .00000590  00000+0  50447-4 0  9992
2 56352  97.6003 299.3543 0002051  78.0439 282.1015 15.01263331138075
STARLINK-5874           
1 56353U 23058AN  25299.97426922 -.00000420  00000+0 -28185-4 0  9993
2 56353  97.6015 299.3735 0001965 153.5382 206.5942 15.01256029138076
STARLINK-5877           
1 56354U 23058AP  25300.00002315  .00011140  00000+0  77530-3 0  9993
2 56354  97.6031 299.3873 0002014  90.1117   2.5640 15.05636827  5698
STARLINK-5533           
1 56355U 23058AQ  25299.98165943  .00000406  00000+0  36110-4 0  9998
2 56355  97.6010 299.3656 0000895 122.7491 237.3819 15.01262979138071
STARLINK-5535           
1 56356U 23058AR  25299.96062265  .00025918  00000+0  18240-2 0  9997
2 56356  97.6024 299.3968 0001848  78.6030 281.5403 15.05026452138078
STARLINK-5538           
1 56357U 23058AS  25299.99402652  .00000135  00000+0  13555-4 0  9999
2 56357  97.6033 299.5077 0001762  91.7512 268.3916 15.05646481138081
STARLINK-5482           
1 56358U 23058AT  25299.98536413  .00000118  00000+0  13689-4 0  9991
2 56358  97.6008 299.3616 0001317 105.2099 254.9271 15.01262422138077
STARLINK-5551           
1 56359U 23058AU  25299.98005369 -.00000717  00000+0 -51298-4 0  9998
2 56359  97.6012 299.3675 0001159 128.2971 231.8358 15.01259769138076
STARLINK-5549           
1 56360U 23058AV  25300.01617028 -.00003158  00000+0 -21466-3 0  9993
2 56360  97.6041 299.4752 0001850  91.2073 268.9365 15.05658804138084
STARLINK-5550           
1 56361U 23058AW  25299.97795642 -.00000245  00000+0 -14519-4 0  9991
2 56361  97.6012 299.3699 0001760 169.2722 190.8540 15.01259335138078
STARLINK-5972           
1 56362U 23058AX  25299.95483399 -.00006236  00000+0 -43742-3 0  9998
2 56362  97.6035 299.4011 0001343  93.2243 266.9137 15.04868986138072
STARLINK-6156           
1 56374U 23061A   25300.07883458  .00000037  00000+0  17804-4 0  9993
2 56374  43.0031 203.6855 0001439 261.5806  98.4874 15.02538325137759
STARLINK-6158           
1 56375U 23061B   25300.07328810  .00000056  00000+0  19217-4 0  9991
2 56375  43.0026 203.6428 0001206 278.7524  81.3182 15.02531379136652
STARLINK-6188           
1 56376U 23061C   25300.11867905 -.00000607  00000+0 -29907-4 0  9991
2 56376  43.0041 203.1234 0001110 270.9834  89.0881 15.02532240136662
STARLINK-6189           
1 56377U 23061D   25300.13643508  .00000133  00000+0  24926-4 0  9993
2 56377  43.0032 203.2569 0001175 273.0568  87.0140 15.02535290136668
STARLINK-6191           
1 56378U 23061E   25300.07430516 -.00000765  00000+0 -41385-4 0  9991
2 56378  43.0052 203.6420 0001950 297.8013  62.2631 15.02679224136656
STARLINK-6157           
1 56379U 23061F   25299.79294445  .00000999  00000+0  89016-4 0  9997
2 56379  43.0030 204.9797 0001382 269.4874  90.5810 15.02536049137711
STARLINK-6159           
1 56381U 23061H   25300.06551586  .00001150  00000+0  10021-3 0  9994
2 56381  43.0037 203.5837 0001210 277.4778  82.5927 15.02533344136650
STARLINK-6160           
1 56382U 23061J   25300.11978166  .00000545  00000+0  55410-4 0  9997
2 56382  43.0034 203.1257 0001120 272.4890  87.5825 15.02538859136669
STARLINK-6166           
1 56383U 23061K   25300.05552719 -.00004179  00000+0 -29432-3 0  9996
2 56383  43.0037 203.5041 0001378 259.5033 100.5654 15.02553615136650
STARLINK-6153           
1 56384U 23061L   25300.11201729  .00000546  00000+0  55496-4 0  9998
2 56384  43.0045 203.0677 0001623 270.8511  89.2145 15.02531670136666
STARLINK-6173           
1 56385U 23061M   25300.11534727 -.00000161  00000+0  31198-5 0  9994
2 56385  43.0025 203.0938 0001035 272.5892  87.4831 15.02532794136663
STARLINK-5836           
1 56386U 23061N   25300.10535734  .00000772  00000+0  72213-4 0  9992
2 56386  43.0028 203.0166 0001296 266.0975  93.9719 15.02535419136663
STARLINK-6178           
1 56387U 23061P   25300.09536722  .00000125  00000+0  24326-4 0  9993
2 56387  43.0037 202.9447 0001184 274.0316  86.0391 15.02535879136667
STARLINK-6176           
1 56388U 23061Q   25300.06884714 -.00000513  00000+0 -22915-4 0  9993
2 56388  43.0039 203.5946 0001172 264.2317  95.8392 15.02526881136651
STARLINK-6145           
1 56389U 23061R   25300.10868529  .00001690  00000+0  14016-3 0  9992
2 56389  43.0040 203.0418 0001199 274.0938  85.9767 15.02537505136662
STARLINK-6298           
1 56391U 23061T   25300.10204802  .00012741  00000+0  95829-3 0  9993
2 56391  43.0018 202.9900 0000498 220.2562 139.8243 15.02466513136669
STARLINK-6301           
1 56392U 23061U   25300.03814172 -.00006509  00000+0 -46690-3 0  9992
2 56392  43.0023 191.2398 0000980 272.0950  87.9780 15.02561240136795
STARLINK-6303           
1 56393U 23061V   25300.09869843  .00001984  00000+0  16188-3 0  9993
2 56393  43.0040 202.9667 0001462 262.2656  97.8020 15.02534010136662
STARLINK-6305           
1 56394U 23061W   25300.02703102 -.00013103  00000+0 -95501-3 0  9996
2 56394  43.0033 191.1568 0001483 270.8088  89.2585 15.02600572136793
STARLINK-6273           
1 56395U 23061X   25300.09685562 -.00000534  00000+0 -24501-4 0  9990
2 56395  43.0023 190.8190 0001161 273.0824  86.9885 15.02532612137513
STARLINK-6302           
1 56396U 23061Y   25300.08796897  .00000640  00000+0  62428-4 0  9990
2 56396  43.0027 190.7563 0001164 269.4232  90.6476 15.02540289131933
STARLINK-6271           
1 56397U 23061Z   25300.03259693 -.00001011  00000+0 -59804-4 0  9993
2 56397  43.0021 191.2001 0001103 266.9809  93.0907 15.02541340136790
STARLINK-6288           
1 56398U 23061AA  25300.08464097  .00000135  00000+0  25086-4 0  9994
2 56398  43.0021 190.7310 0001078 275.5197  84.5522 15.02537861136808
STARLINK-6277           
1 56399U 23061AB  25300.02371166 -.00001471  00000+0 -93852-4 0  9995
2 56399  43.0029 191.1348 0000972 271.9969  88.0762 15.02545810136798
STARLINK-6267           
1 56400U 23061AC  25300.07909317  .00000577  00000+0  57811-4 0  9997
2 56400  43.0031 190.6874 0001271 270.4492  89.6205 15.02537635136807
